$$SOE
2461302.500000000, A.D. 2026-Sep-19 00:00:00.0000, -2.767166107091213E+08, -3.166025426711389E+08, 9.310628787502840E+06,
2461309.500000000, A.D. 2026-Sep-26 00:00:00.0000, -2.674491349218313E+08, -3.231111698342887E+08, 8.923933926816300E+06,
2461316.500000000, A.D. 2026-Oct-03 00:00:00.0000, -2.580058394225734E+08, -3.294073943716184E+08, 8.531373085788310E+06,
2461323.500000000, A.D. 2026-Oct-10 00:00:00.0000, -2.483916816164608E+08, -3.354854830914738E+08, 8.133163012367278E+06,
2461330.500000000, A.D. 2026-Oct-17 00:00:00.0000, -2.386118469933199E+08, -3.413398183695366E+08, 7.729528756081104E+06,
2461337.500000000, A.D. 2026-Oct-24 00:00:00.0000, -2.286717473186657E+08, -3.469649093738348E+08, 7.320703544442967E+06,
2461344.500000000, A.D. 2026-Oct-31 00:00:00.0000, -2.185770180986932E+08, -3.523554035386438E+08, 6.906928612295821E+06,
2461351.500000000, A.D. 2026-Nov-07 00:00:00.0000, -2.083335149622423E+08, -3.575060981718757E+08, 6.488452958740130E+06,
2461358.500000000, A.D. 2026-Nov-14 00:00:00.0000, -1.979473087436313E+08, -3.624119512646307E+08, 6.065533085580930E+06,
2461365.500000000, A.D. 2026-Nov-21 00:00:00.0000, -1.874246810655617E+08, -3.670680907742976E+08, 5.638432939133346E+06,
2461372.500000000, A.D. 2026-Nov-28 00:00:00.0000, -1.767721214102681E+08, -3.714698253408412E+08, 5.207423901087210E+06,
2461379.500000000, A.D. 2026-Dec-05 00:00:00.0000, -1.659963220537958E+08, -3.756126570445185E+08, 4.772784443013862E+06,
2461386.500000000, A.D. 2026-Dec-12 00:00:00.0000, -1.551041706982031E+08, -3.794922930449559E+08, 4.334799684188426E+06,
2461393.500000000, A.D. 2026-Dec-19 00:00:00.0000, -1.441027426927109E+08, -3.831046560435778E+08, 3.893761027085513E+06,
2461400.500000000, A.D. 2026-Dec-26 00:00:00.0000, -1.329992929937242E+08, -3.864458943843805E+08, 3.449965813460648E+06,
2461407.500000000, A.D. 2027-Jan-02 00:00:00.0000, -1.218012475995192E+08, -3.895123919305716E+08, 3.003716960926980E+06,
2461414.500000000, A.D. 2027-Jan-09 00:00:00.0000, -1.105161943586442E+08, -3.923007776442556E+08, 2.555322571793377E+06,
2461421.500000000, A.D. 2027-Jan-16 00:00:00.0000, -9.915187313775906E+07, -3.948079348094227E+08, 2.105095512637585E+06,
2461428.500000000, A.D. 2027-Jan-23 00:00:00.0000, -8.771616532955734E+07, -3.970310098886639E+08, 1.653352958387762E+06,
2461435.500000000, A.D. 2027-Jan-30 00:00:00.0000, -7.621708254485388E+07, -3.989674210135760E+08, 1.200415881209582E+06,
2461442.500000000, A.D. 2027-Feb-06 00:00:00.0000, -6.466275410039078E+07, -4.006148657226648E+08, 7.466084745500088E+05,
2461449.500000000, A.D. 2027-Feb-13 00:00:00.0000, -5.306141380308788E+07, -4.019713266829398E+08, 2.922576558369100E+05,
2461456.500000000, A.D. 2027-Feb-20 00:00:00.0000, -4.142138843842158E+07, -4.030350761440392E+08, -1.623071983922124E+05,
2461463.500000000, A.D. 2027-Feb-27 00:00:00.0000, -2.975108661344130E+07, -4.038046823001008E+08, -6.167546739819944E+05,
2461470.500000000, A.D. 2027-Mar-06 00:00:00.0000, -1.805898498651756E+07, -4.042790156043909E+08, -1.070752015112489E+06,
2461477.500000000, A.D. 2027-Mar-13 00:00:00.0000, -6.353613538868229E+06, -4.044572529588750E+08, -1.523965778287828E+06,
2461484.500000000, A.D. 2027-Mar-20 00:00:00.0000, 5.356458924575184E+06, -4.043388805870426E+08, -1.976062406683624E+06,
2461491.500000000, A.D. 2027-Mar-27 00:00:00.0000, 1.706263918697149E+07, -4.039236961149895E+08, -2.426708785919696E+06,
2461498.500000000, A.D. 2027-Apr-03 00:00:00.0000, 2.875632408659855E+07, -4.032118098880731E+08, -2.875572801518708E+06,
2461505.500000000, A.D. 2027-Apr-10 00:00:00.0000, 4.042891504093495E+07, -4.022036454854134E+08, -3.322323899687976E+06,
2461512.500000000, A.D. 2027-Apr-17 00:00:00.0000, 5.207183259111841E+07, -4.008999394403917E+08, -3.766633652557433E+06,
2461519.500000000, A.D. 2027-Apr-24 00:00:00.0000, 6.367653098609135E+07, -3.993017402323685E+08, -4.208176337973744E+06,
2461526.500000000, A.D. 2027-May-01 00:00:00.0000, 7.523451304383555E+07, -3.974104065318274E+08, -4.646629556552857E+06,
2461533.500000000, A.D. 2027-May-08 00:00:00.0000, 8.673734553352584E+07, -3.952276039646525E+08, -5.081674850431412E+06,
2461540.500000000, A.D. 2027-May-15 00:00:00.0000, 9.817667351868443E+07, -3.927552994587494E+08, -5.512998106025875E+06,
2461547.500000000, A.D. 2027-May-22 00:00:00.0000, 1.095442320368905E+08, -3.899957557833606E+08, -5.940289806952268E+06,
2461554.500000000, A.D. 2027-May-29 00:00:00.0000, 1.208318584155253E+08, -3.869515277726716E+08, -6.363245562880486E+06,
2461561.500000000, A.D. 2027-Jun-05 00:00:00.0000, 1.320315060554274E+08, -3.836254571323721E+08, -6.781566737534344E+06,
2461568.500000000, A.D. 2027-Jun-12 00:00:00.0000, 1.431352576243625E+08, -3.800206654328645E+08, -7.194960954463422E+06,
2461575.500000000, A.D. 2027-Jun-19 00:00:00.0000, 1.541353372817377E+08, -3.761405462630554E+08, -7.603142524813205E+06,
2461582.500000000, A.D. 2027-Jun-26 00:00:00.0000, 1.650241221700391E+08, -3.719887568484053E+08, -8.005832842400700E+06,
2461589.500000000, A.D. 2027-Jul-03 00:00:00.0000, 1.757941532647986E+08, -3.675692091703448E+08, -8.402760755996644E+06,
2461596.500000000, A.D. 2027-Jul-10 00:00:00.0000, 1.864381455833705E+08, -3.628860606257710E+08, -8.793662920122340E+06,
2461603.500000000, A.D. 2027-Jul-17 00:00:00.0000, 1.969489977568836E+08, -3.579437043141555E+08, -9.178284129705712E+06,
2461610.500000000, A.D. 2027-Jul-24 00:00:00.0000, 2.073198010954274E+08, -3.527467590652872E+08, -9.556377657049313E+06,
2461617.500000000, A.D. 2027-Jul-31 00:00:00.0000, 2.175438485372109E+08, -3.473000590247806E+08, -9.927705608626813E+06,
2461624.500000000, A.D. 2027-Aug-07 00:00:00.0000, 2.276146432649394E+08, -3.416086417003125E+08, -1.029203918836401E+07,
2461631.500000000, A.D. 2027-Aug-14 00:00:00.0000, 2.375259046760667E+08, -3.356777347766067E+08, -1.064915867660114E+07,
2461638.500000000, A.D. 2027-Aug-21 00:00:00.0000, 2.472715723173055E+08, -3.295127451161517E+08, -1.099885345638110E+07,
2461645.500000000, A.D. 2027-Aug-28 00:00:00.0000, 2.568458112126777E+08, -3.231192487952006E+08, -1.134092230372299E+07,
2461652.500000000, A.D. 2027-Sep-04 00:00:00.0000, 2.662430174071377E+08, -3.165029797270296E+08, -1.167517362953800E+07,
2461659.500000000, A.D. 2027-Sep-11 00:00:00.0000, 2.754578223366832E+08, -3.096698175872331E+08, -1.200142559993747E+07,
2461666.500000000, A.D. 2027-Sep-18 00:00:00.0000, 2.844850961674716E+08, -3.026257757421895E+08, -1.231950620114662E+07,
2461673.500000000, A.D. 2027-Sep-25 00:00:00.0000, 2.933199503456153E+08, -2.953769893066349E+08, -1.262925327735524E+07,
2461680.500000000, A.D. 2027-Oct-02 00:00:00.0000, 3.019577394488394E+08, -2.879297033485047E+08, -1.293051454723573E+07,
2461687.500000000, A.D. 2027-Oct-09 00:00:00.0000, 3.103940623814435E+08, -2.802902612884750E+08, -1.322314760275973E+07,
2461694.500000000, A.D. 2027-Oct-16 00:00:00.0000, 3.186247629972104E+08, -2.724650935886106E+08, -1.350701990190330E+07,
2461701.500000000, A.D. 2027-Oct-23 00:00:00.0000, 3.266459304347330E+08, -2.644607067717194E+08, -1.378200878089616E+07,
2461708.500000000, A.D. 2027-Oct-30 00:00:00.0000, 3.344538995684628E+08, -2.562836721948010E+08, -1.404800147178739E+07,
2461715.500000000, A.D. 2027-Nov-06 00:00:00.0000, 3.420452504432177E+08, -2.479406134815279E+08, -1.430489492765912E+07,
2461722.500000000, A.D. 2027-Nov-13 00:00:00.0000, 3.494168047372448E+08, -2.394381947205163E+08, -1.455259544442588E+07,
2461729.500000000, A.D. 2027-Nov-20 00:00:00.0000, 3.565656221855273E+08, -2.307831116404078E+08, -1.479101852543654E+07,
2461736.500000000, A.D. 2027-Nov-27 00:00:00.0000, 3.634889986128202E+08, -2.219820828189763E+08, -1.502008889630747E+07,
2461743.500000000, A.D. 2027-Dec-04 00:00:00.0000, 3.701844635858347E+08, -2.130418400325121E+08, -1.523974041096547E+07,
2461750.500000000, A.D. 2027-Dec-11 00:00:00.0000, 3.766497771658308E+08, -2.039691187265466E+08, -1.544991587843062E+07,
2461757.500000000, A.D. 2027-Dec-18 00:00:00.0000, 3.828829260676246E+08, -1.947706489597474E+08, -1.565056686450517E+07,
2461764.500000000, A.D. 2027-Dec-25 00:00:00.0000, 3.888821194087254E+08, -1.854531468318088E+08, -1.584165348371948E+07,
2461771.500000000, A.D. 2028-Jan-01 00:00:00.0000, 3.946457841234627E+08, -1.760233063868034E+08, -1.602314418536501E+07,
$$EOE